#dP2022  5 25  0  0  0.00000000      96 __u+U ITR00 FIT  IAC
## 2211 259200.00000000   900.00000000 59724 0.0000000000000
+  117   C06C07C08C09C10C11C12C13C14C16C19C20C21C22C23C24C25
+        C26C27C28C29C30C32C33C34C35C36C37C38C39C40C41C42C43
+        C44C45C46E01E02E03E04E05E07E08E09E10E11E12E13E14E15
+        E18E19E21E24E25E26E27E30E31E33E34E36G01G02G03G04G05
+        G06G07G08G09G10G11G12G13G14G15G16G17G18G19G20G21G22
+        G23G24G25G26G27G28G29G30G31G32J02J03R01R02R03R04R05
+        R07R08R09R11R12R13R14R15R17R18R19R20R21R22R24  0  0
++         8  7  9  9  7  7  7 10  7  8  6  7  7  8  7  7  7
++         7  7  8  7  5  6  8  6  5  6  8  9  8  8  7  7  7
++         6  7  6  6  5  6  6  7  7  7  6  7  6  6  6  6  7
++         6  7  6  6  7  6  7  6  6  7  7  6  6  7  6  6  6
++         6  6  6  6  6  5  5  6  6  6  5  7  6  6  6  7  6
++         6  6  6  7  6  6  6  6  6  6  7  9  8  7  6  6  7
++         7  7  5  6  5  6  5  6  7  7  6  8  8  7  6  0  0
%c M  cc GPS ccc cccc cccc cccc cccc ccccc ccccc ccccc ccccc
%c cc cc ccc ccc cccc cccc cccc cccc ccccc ccccc ccccc ccccc
%f  0.0000000  0.000000000  0.00000000000  0.000000000000000
%f  0.0000000  0.000000000  0.00000000000  0.000000000000000
%i    0    0    0    0      0      0      0      0         0
%i    0    0    0    0      0      0      0      0         0
/* INFORMATION & ANALYSIS CENTER (IAC)      ULTRA-RAPID DATA
/* S/V CLOCKS ARE ALIGNED TO GNSS TIME                      
/* G:C1WC2W R:C1PC2P E:C1XC5X C:C2IC6I J:C1CC2S             
/* PCV:IGS14_2196 OL/AL:FES2004  NONE     YN ORB:CoN CLK:CoN
*  2022 05 25  8 15  0.00000000
PC06 -14521.605329  25094.328773 -30670.077805     53.420387
PC07 -11316.113519  40478.436075  -2040.569133   -211.338944
PC08   1046.921474  28013.504254  31552.100524    330.230940
PC09  -6358.912928  24797.179988 -33208.095185   -819.901642
PC10  -4779.729322  41292.021139   5542.660468    130.413932
PC11 -27062.797518   1485.221827  -6523.862061    373.370637
PC12 -16315.587443  -9979.938587 -20288.148074   -610.640580
PC13   7187.595799  31894.143055  26898.001607    -22.986944
PC14 -16568.343818   1699.841215  22406.300348    483.217110
PC16 -18364.231853  24204.467364 -29167.792808    134.487224
PC19  16730.069616 -12605.638339 -18419.623764    866.414043
PC20  14247.375221   7253.143514 -22850.753721   -929.366735
PC21  -2965.921092 -24101.043034  13797.692634   -355.947197
PC22   9698.793320 -25994.385902  -3152.452101   -967.955921
PC23  -4576.769126  17391.485707 -21331.445436   -930.703075
PC24 -21970.097334 -15703.640791  -6997.243818   -969.051847
PC25 -18480.717833   2578.691411 -20749.887443   -731.654181
PC26 -13542.370363 -22638.352354   9042.906504    732.970302
PC27   7136.730980  14491.925085  22729.368218    728.556897
PC28 -13244.306330  16206.605033  18454.671347     70.760311
PC29  26170.450321  -9250.121437  -2876.704057    559.318288
PC30  23466.587516   4033.618951  14523.712613    498.980319
PC32   3108.269146  24082.344132 -13718.076149   -964.413623
PC33 -16704.526884  12547.872962  18499.252921   -966.442673
PC34 -24075.165077  -3393.345318 -13734.528891   -395.845193
PC35  13660.489579 -16572.592250 -17812.706174    289.858638
PC36  18834.760482  -1634.280532  20551.894877   -965.088758
PC37  12133.450433  23035.609280 -10052.130316   -909.108460
PC38  -7026.883818  24745.822486  33465.437819    234.576970
PC39 -23320.665743  24391.234559 -25360.954261     34.977041
PC40 -17502.953771  37876.906301  -5424.833148    271.902465
PC41  -9934.072502  25818.912377   3700.363268   -966.718059
PC42 -13901.395174  -8463.368345  22719.092062   -968.391561
PC43 -26431.239588   8727.987294   2153.270956   -922.100392
PC44  -7511.159315 -14441.762414 -22684.799961    670.740727
PC45   4232.196349 -17494.282941  21325.351099    766.004176
PC46  22243.354082  14636.637191   8413.241093   -343.058406
PE01   3378.211170  28887.456728  -5510.415051   -483.204200
PE02  -3496.343059 -28895.188120   5345.721129    301.376058
PE03   4813.483028 -22777.002322  18294.698358   -561.841142
PE04  13190.114766  10927.844295 -24128.172139  -1035.433700
PE05  20339.384403 -21451.256639   1577.174878   -178.412203
PE07 -23812.980720   7655.061075  15831.091492   -671.921448
PE08 -13329.656889 -10579.493370  24225.746341   -535.023385
PE09  23747.792662  -7924.371862 -15795.830061   -530.205660
PE10  28105.132916   9035.962609   2134.497974   -515.264842
PE11  28354.424345   2317.871050  -8155.136570   3564.823651
PE12  23322.964149  14145.585470  11459.063314   4596.582760
PE13 -28510.900820  -2776.128212   7475.576294    428.892330
PE14  24490.616761  -5690.892444  10969.666594  -1827.511916
PE15 -23280.991751 -14119.269189 -11623.516315    743.548060
PE18 -20810.901223  -6228.879307 -20042.113571  -1408.420523
PE19  -7226.948493  23324.197316 -16719.240057  -5245.582810
PE21  -9088.580186  19746.885101 -20092.422674   -736.214171
PE24  17413.040175   2708.040409  23772.188507   -633.865827
PE25   9256.456862 -19511.219401  20246.849103   -575.177666
PE26 -16133.226802  10737.302154  22372.140803  -1184.682440
PE27 -17200.553060  -1268.262006 -24053.367546   -306.689436
PE30 -14698.769923 -22138.801000 -13036.082312   -538.297813
PE31  15128.156507  21355.665227  13835.856229   -497.184485
PE33   4334.736198  17080.231869  23778.478912   -456.299724
PE34  -4593.219165 -17105.272317 -23727.878270   -518.789755
PE36  16950.162746 -10123.306024 -22053.772443   -378.558937
PG01 -21459.287137 -14349.397371  -7291.448282    355.510769
PG02   2150.134814  16291.317855  21491.657947   -653.143378
PG03 -12536.380966 -18233.615228  14665.230026   -256.415598
PG04 -13822.587705  -8252.917240  21148.944079   -163.928361
PG05   5612.566052  25847.542115  -1399.167637    -83.095260
PG06 -13843.709565   9135.841376  20826.000946    316.788957
PG07 -25202.007920  -4712.545255  -7451.062018    322.204105
PG08  -5902.938487 -14442.471190 -21493.505970    -69.398197
PG09 -20820.831027   1902.967265  16331.471190   -334.031192
PG10  12189.591626 -11877.659337 -20162.731082   -427.945167
PG11    972.577985  16479.815755  20804.905503    -20.991543
PG12   9215.512201  22106.419851  11335.322838   -220.778384
PG13  -4656.908052  17897.685315 -19150.238503    317.781083
PG14 -13505.564956  10428.882167 -20333.011214   -109.679410
PG15   8662.806601  13844.799055 -21330.739859    -58.538184
PG16    754.998005 -26115.456039   2836.423267   -503.761791
PG17 -22458.417631  14107.726866  -1411.908343    616.885585
PG18  24972.161799   5082.314135  -7696.696925    160.827006
PG19 -19774.400861  16573.070195   5552.205236    161.852519
PG20    -21.718666  24774.695675   9884.588415    514.122583
PG21 -15258.650435 -15744.765060 -14819.285621    161.203852
PG22  17144.737451 -18384.131034   8703.451362    264.751151
PG23  15199.876688    142.629360 -21797.121845    -24.068685
PG24  19426.530717  14859.527833 -11149.390531    234.653109
PG25  15263.581710   8771.794809  19679.586035    329.052633
PG26   5938.438742 -21821.428219  13592.311563    207.957307
PG27   6901.963164 -19611.240238 -16508.117591    207.949155
PG28  -9623.108748  19279.921200 -15168.183816    351.555298
PG29  20719.328048   -354.022393  16600.793302   -517.230546
PG30 -21336.456949   3301.726075 -15549.776311   -529.157188
PG31  12077.991100 -10890.751193  20948.851219   -179.049389
PG32  20749.633819 -16411.703744    100.215889   -135.103705
PJ02 -19325.656004  26450.681820 -21890.433377     -0.266407
PJ03 -29711.796064  25797.063911  20331.471626     -2.387638
PR01  14733.620524 -12291.705576 -16810.236788      9.084422
PR02  10973.397706 -22952.665153   1394.722229    519.391571
PR03    410.360663 -18938.305730  17104.722353     57.250236
PR04  -9893.867588  -4409.499142  23126.885893    143.176164
PR05 -15002.920689  12493.566203  16444.419609     93.459304
PR07    -51.884428  18564.116412 -17472.496668     35.539720
PR08  10038.548211   4299.096966 -22989.779237    -65.317238
PR09   -184.086146  16562.136381 -19352.932181     56.897585
PR11  16951.394495  15392.242195  11237.186096     38.110186
PR12  12167.330097  -1072.423653  22421.245203     18.605176
PR13    992.161258 -15622.728716  20126.239074    -22.775206
PR14 -11768.938561 -22029.155527   5247.106028     25.542206
PR15 -16837.190734 -14987.129260 -11925.170556     95.893274
PR17  -7661.361751  -9725.859768 -22294.362866    529.061109
PR18 -22090.036584  -4378.482691 -12025.453150    118.020946
PR19 -25200.062687   2004.354549   3399.832289   -190.258680
PR20 -12626.257040   9178.353185  20189.874687    -71.253302
PR21   9254.629050   9385.862494  21836.195406   -304.034428
PR22  22425.366834   4148.955479  11300.798253   -185.327580
PR24  11662.606860 -10032.909599 -20340.359836     95.421191
EOF
